NORAD_CAT_ID,OBJECT_NAME,OBJECT_TYPE,EPOCH,MEAN_MOTION,ECCENTRICITY,INCLINATION,RA_OF_ASC_NODE,ARG_OF_PERICENTER,MEAN_ANOMALY,BSTAR,MEAN_MOTION_DOT,MEAN_MOTION_DDOT,TLE_LINE0,TLE_LINE1,TLE_LINE2,SEMIMAJOR_AXIS,PERIOD,APOGEE,PERIGEE,DECAYED
54199.0,STARLINK-5244,PAYLOAD,2024-02-14 23:23:49,15.08840155,0.0001153,53.2174,137.6006,107.5752,252.5366,7.7759e-05,9.5e-06,0.0,0 STARLINK-5244,1 54199U 22141AU  24045.97487533  .00000950  00000-0  77759-4 0  9992,2 54199  53.2174 137.6006 0001153 107.5752 252.5366 15.08840155 72445,6917.88,95.438,540.543,538.947,0.0
54199.0,STARLINK-5244,PAYLOAD,2024-02-15 12:06:55,15.08826008,0.0001874,53.2165,135.2234,89.1518,270.9688,8.8186e-05,1.115e-05,0.0,0 STARLINK-5244,1 54199U 22141AU  24046.50481239  .00001115  00000-0  88186-4 0  9999,2 54199  53.2165 135.2234 0001874  89.1518 270.9688 15.08826008 72528,6917.923,95.438,541.085,538.492,0.0
54199.0,STARLINK-5244,PAYLOAD,2024-02-16 11:57:41,15.0884895,0.0001414,53.2171,130.7617,92.1499,267.9655,1.9053e-05,1.5e-07,0.0,0 STARLINK-5244,1 54199U 22141AU  24047.49840046  .00000015  00000-0  19053-4 0  9998,2 54199  53.2171 130.7617 0001414  92.1499 267.9655 15.08848950 72678,6917.853,95.437,540.696,538.74,0.0
54199.0,STARLINK-5244,PAYLOAD,2024-02-16 15:08:27,15.08858133,0.0001414,53.2161,130.1666,96.7359,263.3794,-7.009e-05,-1.404e-05,0.0,0 STARLINK-5244,1 54199U 22141AU  24047.63087501 -.00001404  00000-0 -70090-4 0  9996,2 54199  53.2161 130.1666 0001414  96.7359 263.3794 15.08858133 72690,6917.825,95.436,540.668,538.712,0.0
54199.0,STARLINK-5244,PAYLOAD,2024-02-17 11:48:29,15.08842432,0.00015,53.2149,126.3015,99.5929,260.5232,0.00024326,3.586e-05,0.0,0 STARLINK-5244,1 54199U 22141AU  24048.49200641  .00003586  00000-0  24326-3 0  9994,2 54199  53.2149 126.3015 0001500  99.5929 260.5232 15.08842432 72827,6917.873,95.437,540.776,538.7,0.0
54199.0,STARLINK-5244,PAYLOAD,2024-02-17 14:59:15,15.08848195,0.0001528,53.2161,125.7057,100.3901,259.7264,0.00030987,4.648e-05,0.0,0 STARLINK-5244,1 54199U 22141AU  24048.62448389  .00004648  00000-0  30987-3 0  9992,2 54199  53.2161 125.7057 0001528 100.3901 259.7264 15.08848195 72615,6917.855,95.437,540.777,538.663,0.0
54199.0,STARLINK-5244,PAYLOAD,2024-02-18 11:39:16,15.08846113,0.0001467,53.2167,121.8397,89.8229,270.2931,0.00025186,3.723e-05,0.0,0 STARLINK-5244,1 54199U 22141AU  24049.48560592  .00003723  00000-0  25186-3 0  9996,2 54199  53.2167 121.8397 0001467  89.8229 270.2931 15.08846113 72742,6917.862,95.437,540.742,538.712,0.0
54199.0,STARLINK-5244,PAYLOAD,2024-02-18 21:11:35,15.08841184,0.0001565,53.2168,120.0567,86.6886,273.4285,0.00020138,2.919e-05,0.0,0 STARLINK-5244,1 54199U 22141AU  24049.88304783  .00002919  00000-0  20138-3 0  9996,2 54199  53.2168 120.0567 0001565  86.6886 273.4285 15.08841184 72803,6917.877,95.437,540.824,538.659,0.0
54199.0,STARLINK-5244,PAYLOAD,2024-02-19 09:54:40,15.08840593,0.000176,53.2176,117.6807,101.665,258.454,0.0001193,1.611e-05,0.0,0 STARLINK-5244,1 54199U 22141AU  24050.41297002  .00001611  00000-0  11930-3 0  9990,2 54199  53.2176 117.6807 0001760 101.6650 258.4540 15.08840593 72883,6917.879,95.438,540.961,538.526,0.0
54199.0,STARLINK-5244,PAYLOAD,2024-02-19 21:02:22,15.08839393,0.0001597,53.2169,115.6,96.8076,263.3098,6.2535e-05,7.07e-06,0.0,0 STARLINK-5244,1 54199U 22141AU  24050.87665009  .00000707  00000-0  62535-4 0  9999,2 54199  53.2169 115.6000 0001597  96.8076 263.3098 15.08839393 72950,6917.882,95.438,540.852,538.642,0.0
54199.0,STARLINK-5244,PAYLOAD,2024-02-20 03:23:55,15.08838277,0.0001554,53.2172,114.4109,94.6665,265.4504,0.00010433,1.373e-05,0.0,0 STARLINK-5244,1 54199U 22141AU  24051.14161116  .00001373  00000-0  10433-3 0  9999,2 54199  53.2172 114.4109 0001554  94.6665 265.4504 15.08838277 73220,6917.886,95.438,540.826,538.676,0.0
54199.0,STARLINK-5244,PAYLOAD,2024-02-20 11:20:51,15.08836598,0.0001604,53.2166,112.9226,95.5094,264.6081,4.7249e-05,4.64e-06,0.0,0 STARLINK-5244,1 54199U 22141AU  24051.47281305  .00000464  00000-0  47249-4 0  9994,2 54199  53.2166 112.9226 0001604  95.5094 264.6081 15.08836598 73043,6917.891,95.438,540.865,538.646,0.0
54199.0,STARLINK-5244,PAYLOAD,2024-02-20 20:53:09,15.08839105,0.0001598,53.2167,111.1384,92.3064,267.8111,0.00014061,1.95e-05,0.0,0 STARLINK-5244,1 54199U 22141AU  24051.87025346  .00001950  00000-0  14061-3 0  9995,2 54199  53.2167 111.1384 0001598  92.3064 267.8111 15.08839105 73107,6917.883,95.438,540.854,538.643,0.0
54199.0,STARLINK-5244,PAYLOAD,2024-02-21 11:11:37,15.08849915,0.0001581,53.2163,108.4627,95.8973,264.22,0.00029156,4.356e-05,0.0,0 STARLINK-5244,1 54199U 22141AU  24052.46640890  .00004356  00000-0  29156-3 0  9992,2 54199  53.2163 108.4627 0001581  95.8973 264.2200 15.08849915 73426,6917.85,95.437,540.809,538.621,0.0
54199.0,STARLINK-5244,PAYLOAD,2024-02-21 20:43:56,15.08844313,0.0001482,53.2152,106.6774,87.6474,272.4687,0.00016298,2.307e-05,0.0,0 STARLINK-5244,1 54199U 22141AU  24052.86385057  .00002307  00000-0  16298-3 0  9994,2 54199  53.2152 106.6774 0001482  87.6474 272.4687 15.08844313 73250,6917.867,95.437,540.757,538.707,0.0
54199.0,STARLINK-5244,PAYLOAD,2024-02-22 03:05:29,15.08843618,0.0001565,53.216,105.4876,86.498,273.6191,0.00016934,2.408e-05,0.0,0 STARLINK-5244,1 54199U 22141AU  24053.12881073  .00002408  00000-0  16934-3 0  9992,2 54199  53.2160 105.4876 0001565  86.4980 273.6191 15.08843618 73520,6917.869,95.437,540.817,538.652,0.0
54199.0,STARLINK-5244,PAYLOAD,2024-02-22 11:02:25,15.08836151,0.0001435,53.2164,104.001,86.2018,273.9138,4.8291e-05,4.81e-06,0.0,0 STARLINK-5244,1 54199U 22141AU  24053.46001598  .00000481  00000-0  48291-4 0  9996,2 54199  53.2164 104.0010 0001435  86.2018 273.9138 15.08836151 73578,6917.892,95.438,540.75,538.764,0.0
54199.0,STARLINK-5244,PAYLOAD,2024-02-23 09:17:49,15.08838515,0.0001498,53.2157,99.8381,88.1316,271.9847,3.2053e-05,2.22e-06,0.0,0 STARLINK-5244,1 54199U 22141AU  24054.38737738  .00000222  00000-0  32053-4 0  9992,2 54199  53.2157  99.8381 0001498  88.1316 271.9847 15.08838515 73484,6917.885,95.438,540.786,538.714,0.0
54199.0,STARLINK-5244,PAYLOAD,2024-02-23 20:25:31,15.08845091,0.0001456,53.2162,97.7561,95.2804,264.8354,0.00011923,1.61e-05,0.0,0 STARLINK-5244,1 54199U 22141AU  24054.85105461  .00001610  00000-0  11923-3 0  9990,2 54199  53.2162  97.7561 0001456  95.2804 264.8354 15.08845091 73551,6917.865,95.437,540.737,538.723,0.0
54199.0,STARLINK-5244,PAYLOAD,2024-02-24 12:19:22,15.08851826,0.0001535,53.2158,94.7816,94.0263,266.0904,0.00030068,4.502e-05,0.0,0 STARLINK-5244,1 54199U 22141AU  24055.51345244  .00004502  00000-0  30068-3 0  9993,2 54199  53.2158  94.7816 0001535  94.0263 266.0904 15.08851826 73659,6917.844,95.437,540.771,538.647,0.0
54199.0,STARLINK-5244,PAYLOAD,2024-02-25 02:37:50,15.08844966,0.0001237,53.2156,92.1042,89.3862,270.7272,0.00014326,1.993e-05,0.0,0 STARLINK-5244,1 54199U 22141AU  24056.10961425  .00001993  00000-0  14326-3 0  9994,2 54199  53.2156  92.1042 0001237  89.3862 270.7272 15.08844966 73973,6917.865,95.437,540.586,538.874,0.0
54199.0,STARLINK-5244,PAYLOAD,2024-02-25 08:59:22,15.08848204,0.0001376,53.2155,90.9147,94.9791,265.1358,0.00016967,2.414e-05,0.0,0 STARLINK-5244,1 54199U 22141AU  24056.37457152  .00002414  00000-0  16967-3 0  9992,2 54199  53.2155  90.9147 0001376  94.9791 265.1358 15.08848204 73782,6917.855,95.437,540.672,538.768,0.0
54199.0,STARLINK-5244,PAYLOAD,2024-02-26 08:50:10,15.08838189,0.0001579,53.2161,86.4556,98.7505,261.3666,-0.00010518,-1.961e-05,0.0,0 STARLINK-5244,1 54199U 22141AU  24057.36817661 -.00001961  00000-0 -10518-3 0  9991,2 54199  53.2161  86.4556 0001579  98.7505 261.3666 15.08838189 74167,6917.886,95.438,540.843,538.659,0.0
54199.0,STARLINK-5244,PAYLOAD,2024-02-27 08:40:57,15.08839695,0.0001595,53.2171,81.9961,104.362,255.7549,9.7203e-05,1.259e-05,0.0,0 STARLINK-5244,1 54199U 22141AU  24058.36177730  .00001259  00000-0  97203-4 0  9993,2 54199  53.2171  81.9961 0001595 104.3620 255.7549 15.08839695 74089,6917.881,95.438,540.85,538.643,0.0
54199.0,STARLINK-5244,PAYLOAD,2024-02-27 18:13:16,15.08834224,0.0001484,53.217,80.2114,102.1411,257.9747,0.00021198,3.087e-05,0.0,0 STARLINK-5244,1 54199U 22141AU  24058.75921994  .00003087  00000-0  21198-3 0  9995,2 54199  53.2170  80.2114 0001484 102.1411 257.9747 15.08834224 74370,6917.898,95.438,540.79,538.736,0.0
54199.0,STARLINK-5244,PAYLOAD,2024-02-28 10:07:08,15.08837657,0.0001611,53.2179,77.2384,99.7037,260.4137,0.00012393,1.685e-05,0.0,0 STARLINK-5244,1 54199U 22141AU  24059.42162193  .00001685  00000-0  12393-3 0  9997,2 54199  53.2179  77.2384 0001611  99.7037 260.4137 15.08837657 74242,6917.888,95.438,540.867,538.638,0.0
54199.0,STARLINK-5244,PAYLOAD,2024-02-28 18:04:03,15.08837171,0.0001612,53.2179,75.7512,94.0919,266.0257,9.6799e-05,1.253e-05,0.0,0 STARLINK-5244,1 54199U 22141AU  24059.75282364  .00001253  00000-0  96799-4 0  9990,2 54199  53.2179  75.7512 0001612  94.0919 266.0257 15.08837171 74297,6917.889,95.438,540.869,538.639,0.0
54199.0,STARLINK-5244,PAYLOAD,2024-02-29 09:57:54,15.08847368,0.0001596,53.2177,72.7766,93.2119,266.9056,0.00010325,1.356e-05,0.0,0 STARLINK-5244,1 54199U 22141AU  24060.41521672  .00001356  00000-0  10325-3 0  9997,2 54199  53.2177  72.7766 0001596  93.2119 266.9056 15.08847368 74629,6917.858,95.437,540.827,538.619,0.0
54199.0,STARLINK-5244,PAYLOAD,2024-02-29 17:54:50,15.08844127,0.0001459,53.2164,71.2858,85.109,275.0069,-1.9674e-05,-6.01e-06,0.0,0 STARLINK-5244,1 54199U 22141AU  24060.74642050 -.00000601  00000-0 -19674-4 0  9998,2 54199  53.2164  71.2858 0001459  85.1090 275.0069 15.08844127 74677,6917.868,95.437,540.742,538.723,0.0
54199.0,STARLINK-5244,PAYLOAD,2024-03-01 00:16:23,15.08834599,0.0001555,53.2169,70.1006,86.7066,273.4104,5.5532e-05,5.96e-06,0.0,0 STARLINK-5244,1 54199U 22141AU  24061.01138663  .00000596  00000-0  55532-4 0  9993,2 54199  53.2169  70.1006 0001555  86.7066 273.4104 15.08834599 74711,6917.897,95.438,540.838,538.686,0.0
